[{"OBJECT_NAME":"OBJECT A","OBJECT_ID":"2023-104A","EPOCH":"2026-03-06T18:47:13.750656","MEAN_MOTION":15.33350758,"ECCENTRICITY":0.00093331,"INCLINATION":97.2792,"RA_OF_ASC_NODE":135.5625,"ARG_OF_PERICENTER":122.1915,"MEAN_ANOMALY":238.0234,"EPHEMERIS_TYPE":0,"CLASSIFICATION_TYPE":"U","NORAD_CAT_ID":57424,"ELEMENT_SET_NO":999,"REV_AT_EPOCH":14634,"BSTAR":0.00048200218,"MEAN_MOTION_DOT":0.00015492,"MEAN_MOTION_DDOT":0},{"OBJECT_NAME":"STARLINK-35060","OBJECT_ID":"2025-212T","EPOCH":"2026-03-09T22:28:58.396800","MEAN_MOTION":15.31045057,"ECCENTRICITY":0.00011416,"INCLINATION":53.1615,"RA_OF_ASC_NODE":334.3761,"ARG_OF_PERICENTER":97.0742,"MEAN_ANOMALY":263.0389,"EPHEMERIS_TYPE":0,"CLASSIFICATION_TYPE":"U","NORAD_CAT_ID":65693,"ELEMENT_SET_NO":999,"REV_AT_EPOCH":2742,"BSTAR":0.00092860257,"MEAN_MOTION_DOT":0.00027977,"MEAN_MOTION_DDOT":0}]
